ORBCOMM FM24            
1 25478U 98053D   25040.60204952  .00002312  00000+0  81171-3 0  9998
2 25478  45.0068 153.8026 0002879 261.2448  98.8074 14.37518483379086
ORBCOMM FM25            
1 25479U 98053E   25040.57129714  .00002498  00000+0  87339-3 0  9994
2 25479  45.0061 152.2048 0004320 295.1920  64.8480 14.37502013379379
ORBCOMM FM26            
1 25480U 98053F   25040.57193876  .00001902  00000+0  68797-3 0  9992
2 25480  45.0057 147.7770 0005312 324.6611  35.3884 14.36646998379296
ORBCOMM FM27            
1 25481U 98053G   25040.56072989  .00002480  00000+0  86720-3 0  9991
2 25481  45.0043 152.4949 0002090 231.4313 128.6348 14.37510118379305
ORBCOMM FM28            
1 25482U 98053H   25040.20100259  .00001771  00000+0  62955-3 0  9991
2 25482  45.0052  91.9149 0003933 339.7511  20.3181 14.37763315379935
ORBCOMM FM30            
1 25980U 99065A   25040.50656625  .00001965  00000+0  70697-3 0  9991
2 25980  45.0326 333.8738 0005888  75.1912 284.9588 14.36805708316089
ORBCOMM FM31            
1 25981U 99065B   25040.19743615  .00001804  00000+0  65327-3 0  9999
2 25981  45.0237 328.8696 0002913  92.4469 267.6712 14.36771840315594
ORBCOMM FM32            
1 25982U 99065C   25040.15839525  .00002016  00000+0  73858-3 0  9996
2 25982  45.0166 344.7662 0004582  96.9360 263.2009 14.35809847316195
